{
  "norad_id": 58544,
  "name": "STARLINK-31048",
  "history": [
    {
      "epoch": "2026-04-14T15:27:02.248128Z",
      "apogee_km": 475.8955800646172,
      "perigee_km": 474.55643293314733,
      "latitude_deg": -7.218115950737723e-05,
      "longitude_deg": -179.133768264327,
      "height_km": 476.04642497313216,
      "semi_major_axis_km": 6853.363006498882,
      "eccentricity": 9.77e-05,
      "inclination_deg": 53.1605,
      "raan_deg": 255.4429,
      "arg_perigee_deg": 83.2995,
      "mean_anomaly_deg": 276.8116,
      "mean_motion_rev_day": 15.30196337
    },
    {
      "epoch": "2026-04-15T16:31:53.584032Z",
      "apogee_km": 475.8661192773161,
      "perigee_km": 474.60235762094544,
      "latitude_deg": -7.630608409543606e-05,
      "longitude_deg": 158.76789392301646,
      "height_km": 475.9338401636809,
      "semi_major_axis_km": 6853.37123844913,
      "eccentricity": 9.22e-05,
      "inclination_deg": 53.1607,
      "raan_deg": 250.5885,
      "arg_perigee_deg": 71.6345,
      "mean_anomaly_deg": 288.4755,
      "mean_motion_rev_day": 15.3019358
    },
    {
      "epoch": "2026-04-16T09:46:28.749216Z",
      "apogee_km": 475.8968758362689,
      "perigee_km": 474.57143385492236,
      "latitude_deg": 3.5668443402845444e-05,
      "longitude_deg": -103.92589187284268,
      "height_km": 475.81156280437574,
      "semi_major_axis_km": 6853.371154845595,
      "eccentricity": 9.67e-05,
      "inclination_deg": 53.16,
      "raan_deg": 247.2493,
      "arg_perigee_deg": 61.0058,
      "mean_anomaly_deg": 299.104,
      "mean_motion_rev_day": 15.30193608
    },
    {
      "epoch": "2026-04-17T20:15:38.942208Z",
      "apogee_km": 475.97725571208684,
      "perigee_km": 474.49267827659696,
      "latitude_deg": 6.892651594112683e-05,
      "longitude_deg": 90.69376774210109,
      "height_km": 475.9321716640706,
      "semi_major_axis_km": 6853.371966994342,
      "eccentricity": 0.00010831,
      "inclination_deg": 53.1612,
      "raan_deg": 240.5777,
      "arg_perigee_deg": 74.2651,
      "mean_anomaly_deg": 285.847,
      "mean_motion_rev_day": 15.30193336
    },
    {
      "epoch": "2026-04-18T15:04:16.716000Z",
      "apogee_km": 475.9630642802331,
      "perigee_km": 474.46629227369704,
      "latitude_deg": 3.85450192287405e-05,
      "longitude_deg": 164.1240349969844,
      "height_km": 475.9423118016564,
      "semi_major_axis_km": 6853.351678276965,
      "eccentricity": 0.0001092,
      "inclination_deg": 53.1612,
      "raan_deg": 236.9379,
      "arg_perigee_deg": 76.8036,
      "mean_anomaly_deg": 283.3087,
      "mean_motion_rev_day": 15.30200131
    },
    {
      "epoch": "2026-04-19T14:35:05.805312Z",
      "apogee_km": 476.0164541486947,
      "perigee_km": 474.5087062410503,
      "latitude_deg": 3.096918299967582e-05,
      "longitude_deg": 165.90021907257594,
      "height_km": 476.199527202395,
      "semi_major_axis_km": 6853.399580194872,
      "eccentricity": 0.00011,
      "inclination_deg": 53.1605,
      "raan_deg": 232.3843,
      "arg_perigee_deg": 92.9347,
      "mean_anomaly_deg": 267.178,
      "mean_motion_rev_day": 15.30184088
    },
    {
      "epoch": "2026-04-20T14:05:52.994688Z",
      "apogee_km": 476.16520653345196,
      "perigee_km": 474.3061606593001,
      "latitude_deg": -2.877374245423129e-06,
      "longitude_deg": 167.68772062445,
      "height_km": 476.1741169418878,
      "semi_major_axis_km": 6853.372683596376,
      "eccentricity": 0.00013563,
      "inclination_deg": 53.1625,
      "raan_deg": 227.8341,
      "arg_perigee_deg": 92.4793,
      "mean_anomaly_deg": 267.6363,
      "mean_motion_rev_day": 15.30193096
    },
    {
      "epoch": "2026-04-21T13:36:40.775040Z",
      "apogee_km": 476.4812437390892,
      "perigee_km": 473.9619491190424,
      "latitude_deg": -1.7629040760783112e-05,
      "longitude_deg": 169.47056665372483,
      "height_km": 476.3351881899781,
      "semi_major_axis_km": 6853.358596429065,
      "eccentricity": 0.0001838,
      "inclination_deg": 53.1569,
      "raan_deg": 223.2817,
      "arg_perigee_deg": 99.902,
      "mean_anomaly_deg": 260.2188,
      "mean_motion_rev_day": 15.30197814
    },
    {
      "epoch": "2026-04-22T11:33:26.286336Z",
      "apogee_km": 476.177081047912,
      "perigee_km": 474.338178200891,
      "latitude_deg": -7.462640545840674e-06,
      "longitude_deg": -164.86554765538747,
      "height_km": 476.3497339610005,
      "semi_major_axis_km": 6853.394629624401,
      "eccentricity": 0.00013416,
      "inclination_deg": 53.1633,
      "raan_deg": 219.0365,
      "arg_perigee_deg": 102.1641,
      "mean_anomaly_deg": 257.951,
      "mean_motion_rev_day": 15.30185746
    },
    {
      "epoch": "2026-04-24T10:35:01.909248Z",
      "apogee_km": 476.0983963022991,
      "perigee_km": 474.3850516213088,
      "latitude_deg": -5.521761826267103e-05,
      "longitude_deg": -161.29792774051117,
      "height_km": 476.02705833956696,
      "semi_major_axis_km": 6853.378723961804,
      "eccentricity": 0.000125,
      "inclination_deg": 53.1606,
      "raan_deg": 209.9339,
      "arg_perigee_deg": 82.4301,
      "mean_anomaly_deg": 277.6841,
      "mean_motion_rev_day": 15.30191073
    },
    {
      "epoch": "2026-04-25T11:39:52.809696Z",
      "apogee_km": 475.9528883085677,
      "perigee_km": 474.51779214052385,
      "latitude_deg": -1.6861174386225844e-05,
      "longitude_deg": 176.60658301576254,
      "height_km": 476.20124753472805,
      "semi_major_axis_km": 6853.372340224545,
      "eccentricity": 0.0001047,
      "inclination_deg": 53.162,
      "raan_deg": 205.0805,
      "arg_perigee_deg": 95.3826,
      "mean_anomaly_deg": 264.7294,
      "mean_motion_rev_day": 15.30193211
    },
    {
      "epoch": "2026-04-26T15:52:50.432448Z",
      "apogee_km": 475.89067771188184,
      "perigee_km": 474.5634552267693,
      "latitude_deg": 2.5267946928182944e-05,
      "longitude_deg": 106.74812973641853,
      "height_km": 476.1290020084892,
      "semi_major_axis_km": 6853.364066469326,
      "eccentricity": 9.683e-05,
      "inclination_deg": 53.1607,
      "raan_deg": 199.6209,
      "arg_perigee_deg": 90.2921,
      "mean_anomaly_deg": 269.8191,
      "mean_motion_rev_day": 15.30195982
    },
    {
      "epoch": "2026-04-27T16:57:41.947200Z",
      "apogee_km": 476.042810714559,
      "perigee_km": 474.45556647327976,
      "latitude_deg": -3.698636341535825e-06,
      "longitude_deg": 84.64842502781875,
      "height_km": 476.08822738684637,
      "semi_major_axis_km": 6853.386188593919,
      "eccentricity": 0.0001158,
      "inclination_deg": 53.1616,
      "raan_deg": 194.7659,
      "arg_perigee_deg": 85.7103,
      "mean_anomaly_deg": 274.403,
      "mean_motion_rev_day": 15.30188573
    },
    {
      "epoch": "2026-04-28T16:28:29.805312Z",
      "apogee_km": 476.04848014327763,
      "perigee_km": 474.4269716831259,
      "latitude_deg": 1.3347176630320561e-05,
      "longitude_deg": 86.43257298627374,
      "height_km": 475.8899825022553,
      "semi_major_axis_km": 6853.3747259132015,
      "eccentricity": 0.0001183,
      "inclination_deg": 53.1615,
      "raan_deg": 190.2151,
      "arg_perigee_deg": 72.3239,
      "mean_anomaly_deg": 287.7891,
      "mean_motion_rev_day": 15.30192412
    },
    {
      "epoch": "2026-04-29T14:25:13.949760Z",
      "apogee_km": 475.83430654191943,
      "perigee_km": 474.51572930967086,
      "latitude_deg": -2.2798945299229766e-06,
      "longitude_deg": 112.10015293020959,
      "height_km": 475.92314975284296,
      "semi_major_axis_km": 6853.312017925795,
      "eccentricity": 9.62e-05,
      "inclination_deg": 53.1612,
      "raan_deg": 185.9679,
      "arg_perigee_deg": 76.8017,
      "mean_anomaly_deg": 283.3091,
      "mean_motion_rev_day": 15.30213414
    },
    {
      "epoch": "2026-04-30T10:47:56.040288Z",
      "apogee_km": 476.04225332137867,
      "perigee_km": 474.42293915317987,
      "latitude_deg": 2.3346184593187852e-05,
      "longitude_deg": 161.64428526878424,
      "height_km": 476.01622105971484,
      "semi_major_axis_km": 6853.3695962372785,
      "eccentricity": 0.00011814,
      "inclination_deg": 53.1606,
      "raan_deg": 182.0243,
      "arg_perigee_deg": 81.8595,
      "mean_anomaly_deg": 278.254,
      "mean_motion_rev_day": 15.3019413
    }
  ]
}